QIANFAN-73              
1 63159U 25046A   25346.23504989  .00000150  00000+0  21353-3 0  9993
2 63159  88.9761 320.0747 0016455 120.9027 239.3745 13.50977008 47341
QIANFAN-74              
1 63160U 25046B   25346.29250312  .00000183  00000+0  26537-3 0  9994
2 63160  88.9761 319.9574 0001993  78.3967 281.7408 13.50979469 47416
QIANFAN-75              
1 63161U 25046C   25346.20573043  .00000202  00000+0  29369-3 0  9993
2 63161  88.9763 320.2001 0017508 123.9896 236.2922 13.50978426 47278
QIANFAN-76              
1 63162U 25046D   25346.20235194  .00000123  00000+0  17119-3 0  9998
2 63162  88.9761 320.1812 0015045 123.7859 236.4728 13.50970376 47280
QIANFAN-77              
1 63163U 25046E   25346.25569118  .00000457  00000+0  32292-3 0  9999
2 63163  88.9763 318.1864 0017008  82.4804 277.8304 13.96087994 48385
QIANFAN-78              
1 63164U 25046F   25346.24325231  .00000155  00000+0  22065-3 0  9997
2 63164  88.9761 320.0408 0016366 126.2244 234.0423 13.50977194 47365
QIANFAN-79              
1 63165U 25046G   25346.19785056  .00000177  00000+0  25521-3 0  9991
2 63165  88.9765 320.1530 0016101 124.6486 235.6185 13.50978846 47305
QIANFAN-80              
1 63166U 25046H   25346.21436700  .00000200  00000+0  29049-3 0  9990
2 63166  88.9763 319.8581 0014978 128.1320 232.1184 13.50976506 47460
